{
    "links": {
        "self": "http://www.neowsapp.com/rest/v1/neo/3516488?api_key=iIulBulltgU6a56xZRHN4H3l9WmuAYTsLGpBGhQ2"
    },
    "id": "3516488",
    "neo_reference_id": "3516488",
    "name": "(2010 GO67)",
    "designation": "2010 GO67",
    "nasa_jpl_url": "http://ssd.jpl.nasa.gov/sbdb.cgi?sstr=3516488",
    "absolute_magnitude_h": 25.0,
    "estimated_diameter": {
        "kilometers": {
            "estimated_diameter_min": 0.02658,
            "estimated_diameter_max": 0.0594346868
        },
        "meters": {
            "estimated_diameter_min": 26.58,
            "estimated_diameter_max": 59.4346868419
        },
        "miles": {
            "estimated_diameter_min": 0.0165160412,
            "estimated_diameter_max": 0.0369309908
        },
        "feet": {
            "estimated_diameter_min": 87.2047272,
            "estimated_diameter_max": 194.9956979785
        }
    },
    "is_potentially_hazardous_asteroid": false,
    "close_approach_data": [
        {
            "close_approach_date": "2010-04-22",
            "close_approach_date_full": "2010-Apr-22 11:16",
            "epoch_date_close_approach": 1271934960000,
            "relative_velocity": {
                "kilometers_per_second": "25.0958449291",
                "kilometers_per_hour": "90345.0417448932",
                "miles_per_hour": "56136.8955219866"
            },
            "miss_distance": {
                "astronomical": "0.0191952367",
                "lunar": "7.4669470763",
                "kilometers": "2871566.524465829",
                "miles": "1784308.6988092802"
            },
            "orbiting_body": "Earth"
        }
    ],
    "orbital_data": {
        "orbit_id": "11",
        "orbit_determination_date": "2017-04-06 08:57:46",
        "first_observation_date": "2010-04-15",
        "last_observation_date": "2010-04-22",
        "data_arc_in_days": 7,
        "observations_used": 34,
        "orbit_uncertainty": "9",
        "minimum_orbit_intersection": ".0172711",
        "jupiter_tisserand_invariant": "4.235",
        "epoch_osculation": "2455304.5",
        "eccentricity": ".7431007680488934",
        "semi_major_axis": "1.47584912003747",
        "inclination": "5.228617340458554",
        "ascending_node_longitude": "200.9365520183357",
        "orbital_period": "654.8794580419253",
        "perihelion_distance": ".3791445054133427",
        "perihelion_argument": "128.3571193640901",
        "aphelion_distance": "2.572553734661598",
        "perihelion_time": "2455356.735114465023",
        "mean_anomaly": "331.2853396506989",
        "mean_motion": ".5497194874250473",
        "equinox": "J2000",
        "orbit_class": {
            "orbit_class_type": "APO",
            "orbit_class_description": "Near-Earth asteroid orbits which cross the Earth’s orbit similar to that of 1862 Apollo",
            "orbit_class_range": "a (semi-major axis) > 1.0 AU; q (perihelion) < 1.017 AU"
        }
    },
    "is_sentry_object": false
}